MAKERSAT 0              
1 43016U 17073D   18301.35359535  .00000408  00000-0  37617-4 0  9993
2 43016  97.7118 226.9847 0258272 197.7098 161.4985 14.78361929 50801
ASTERIA                 
1 43020U 98067NH  18301.58298573  .00011933  00000-0  13760-3 0  9996
2 43020  51.6426  62.7918 0002322 320.4327  39.6498 15.62409703 53327
DELLINGR (RBLE)         
1 43021U 98067NJ  18301.57838800  .00006798  00000-0  90852-4 0  9990
2 43021  51.6403  66.4585 0002077 308.2478  51.8328 15.59345958 53271
OSIRIS-3U               
1 43027U 98067NL  18301.57587878  .00048265  00000-0  33328-3 0  9991
2 43027  51.6375  51.3505 0004381 314.9598  45.1045 15.74049206 53352
AEROCUBE 7B             
1 43042U 17071F   18301.60487833  .00002713  00000-0  77617-4 0  9996
2 43042  51.6378 111.1643 0005126  36.8228 323.3108 15.39678585 50153
AEROCUBE 7C             
1 43043U 17071G   18301.60477058  .00002925  00000-0  82879-4 0  9996
2 43043  51.6379 111.1713 0005232  38.2198 321.9157 15.39685501 50124
CHEFSAT                 
1 43044U 17071H   18301.06041800  .00004203  00000-0  10950-3 0  9990
2 43044  51.6384 112.0845 0005021  36.0094 324.1228 15.41126280 50068
ASGARDIA 1              
1 43049U 17071N   18301.57488283  .00002320  00000-0  67570-4 0  9990
2 43049  51.6385 110.9834 0002917  61.2572 298.8706 15.39797226 50127
ISARA                   
1 43050U 17071P   18300.95048836  .00004861  00000-0  12622-3 0  9998
2 43050  51.6377 112.8350 0002711  58.2600 301.8649 15.40852001 50041
FAUNA                   
1 43052U 17071R   18301.54999271  .00003077  00000-0  85843-4 0  9998
2 43052  51.6385 110.8298 0002839  57.7562 302.3697 15.39977742 50118
CORVUS BC3              
1 43118U 18004H   18301.17898954  .00000655  00000-0  31393-4 0  9993
2 43118  97.5185   3.9356 0010380 359.0057   1.1157 15.22464155 43941
MICROMAS-2A             
1 43131U 18004W   18301.40903619  .00001557  00000-0  68725-4 0  9990
2 43131  97.5198   4.4265 0009501   1.8231 358.3038 15.23268365 43990
GOMX4-B                 
1 43196U 18015E   18301.39150681  .00000369  00000-0  18241-4 0  9992
2 43196  97.3633  67.7381 0020517  51.0764 309.2298 15.23734559 40816
GOMX4-A                 
1 43197U 18015F   18301.59481689  .00000439  00000-0  21081-4 0  9994
2 43197  97.3645  67.9414 0020691  51.6977   9.0827 15.23806916 40858
1KUNS-PF                
1 43466U 98067NP  18301.54543721  .00012289  00000-0  16296-3 0  9996
2 43466  51.6403  70.7289 0000439 280.9153  79.1791 15.58683308 26471
UBAKUSAT                
1 43467U 98067NQ  18301.58188496  .00008843  00000-0  12311-3 0  9990
2 43467  51.6396  70.9748 0002413 269.3817  90.6898 15.57796108 26486
BATSU-CS1 (IRAZU)       
1 43468U 98067NR  18301.57461383  .00015124  00000-0  19389-3 0  9991
2 43468  51.6397  70.1740 0000384 273.1721  86.9228 15.59375398126475
CUBERRT                 
1 43546U 98067NU  18301.60013296  .00004027  00000-0  62209-4 0  9998
2 43546  51.6402  72.5857 0005713 335.2427  24.8290 15.56660940 16596
TEMPEST-D               
1 43547U 98067NV  18301.56407490  .00003344  00000-0  54812-4 0  9999
2 43547  51.6398  73.0928 0005708 338.1057  21.9689 15.55612155 16269
RAINCUBE                
1 43548U 98067NW  18301.55010289  .00008541  00000-0  12586-3 0  9990
2 43548  51.6396  73.0001 0005762 344.4777  15.6037 15.56290763 16714
HALOSAT                 
1 43549U 98067NX  18301.55060865  .00008240  00000-0  12178-3 0  9999
2 43549  51.6397  73.0041 0005732 347.0170  13.0673 15.56268284 16275
ENDUROSAT ONE           
1 43551U 98067NZ  18301.58890407  .00010158  00000-0  14547-3 0  9991
2 43551  51.6394  72.5092 0006305 352.3934   7.6961 15.56823354 16699
EQUISAT                 
1 43552U 98067PA  18301.59578999  .00008491  00000-0  12389-3 0  9991
2 43552  51.6395  72.5568 0006543 353.4850   6.6056 15.56569369 16655
AEROCUBE 12A            
1 43556U 18046C   18301.60742718  .00000546  00000-0  32559-4 0  9993
2 43556  51.6428  94.0779 0008088 320.8589  39.1805 15.27955616 15915
AEROCUBE 12B            
1 43557U 18046D   18301.60837529  .00000345  00000-0  25332-4 0  9997
2 43557  51.6428  94.0836 0008094 320.8042  39.2350 15.27917874 15865
UITMSAT-1               
1 43589U 98067PD  18301.57220425  .00009557  00000-0  14059-3 0  9997
2 43589  51.6394  73.1454 0005938   2.1733 357.9283 15.56172694 12381
MAYA-1                  
1 43590U 98067PE  18301.57078103  .00009655  00000-0  14182-3 0  9999
2 43590  51.6394  73.1365 0006016   2.9087 357.1939 15.56200090 12317
BHUTAN-1                
1 43591U 98067PF  18301.56882444  .00009765  00000-0  14314-3 0  9999
2 43591  51.6394  73.1236 0006096   4.3683 355.7360 15.56241449 12316
SIRIUSSAT-1             
1 43595U 98067PG  18301.52769789  .00008899  00000-0  13335-3 0  9994
2 43595  51.6394  73.5940 0003495 314.2290  45.8414 15.55774154 11480
SIRIUSSAT-2             
1 43596U 98067PH  18301.59861218  .00008782  00000-0  13240-3 0  9998
2 43596  51.6403  73.3250 0004155 317.8161  42.2510 15.55625813 11490
TANUSHA-3               
1 43597U 98067PJ  18301.59282028  .00011216  00000-0  16544-3 0  9991
2 43597  51.6382  73.2725 0003665 330.4949  29.5835 15.55901442 11496
SURFSAT                 
1 43614U 18070B   18301.57548147  .00002583  00000-0  72641-4 0  9990
2 43614  93.0286 267.2997 0018697 116.7684 243.5480 15.36399163  6608
CP-7 (DAVE)             
1 43615U 18070C   18301.57524871  .00002409  00000-0  67741-4 0  9991
2 43615  93.0284 267.3012 0018767 116.6162 243.7014 15.36402319  6607
ELFIN-B                 
1 43616U 18070D   18301.37787548 -.00000006  00000-0  00000-0 0  9995
2 43616  93.0287 267.1972 0019628 122.1965 238.1556 15.36490446  6577
ELFIN-A                 
1 43617U 18070E   18301.37710465 -.00000006  00000-0  00000+0 0  9999
2 43617  93.0270 267.2316 0018553 118.9437 241.4550 15.36527599  6577
